{"fetched_at":"2026-04-02T02:06:33Z","count":6526,"tles":[{"name":"STARLINK-37088","line1":"1 68322U 26059B   26090.66668981 -.00012814  00000+0 -61445-4 0  9991","line2":"2 68322  53.1594 252.7340 0001408  52.3237 164.8518 15.80882011  2579","category":"Starlink"}]}